[{"OBJECT_NAME":"STARLINK-5373","OBJECT_ID":"2023-015AT","EPOCH":"2026-03-09T22:00:01.999584","MEAN_MOTION":15.1336627,"ECCENTRICITY":0.0001701,"INCLINATION":42.9999,"RA_OF_ASC_NODE":337.3893,"ARG_OF_PERICENTER":260.8255,"MEAN_ANOMALY":48.0561,"EPHEMERIS_TYPE":0,"CLASSIFICATION_TYPE":"U","NORAD_CAT_ID":55490,"ELEMENT_SET_NO":999,"REV_AT_EPOCH":572,"BSTAR":0.06585946,"MEAN_MOTION_DOT":0.01296118,"MEAN_MOTION_DDOT":0},{"OBJECT_NAME":"COSMOS 2251 DEB","OBJECT_ID":"1993-036BXP","EPOCH":"2026-03-04T07:23:49.847712","MEAN_MOTION":15.24789556,"ECCENTRICITY":0.00190834,"INCLINATION":73.9759,"RA_OF_ASC_NODE":64.3004,"ARG_OF_PERICENTER":239.4537,"MEAN_ANOMALY":120.4779,"EPHEMERIS_TYPE":0,"CLASSIFICATION_TYPE":"U","NORAD_CAT_ID":47059,"ELEMENT_SET_NO":999,"REV_AT_EPOCH":9543,"BSTAR":0.0048704033,"MEAN_MOTION_DOT":0.00123422,"MEAN_MOTION_DDOT":0}]
